        SPCS","OBJECT_NAME":"STARLINK-1926","OBJECT_ID":"2020-074U","CENTER_NAME":"EARTH","REF_FRAME":"TEME","TIME_SYSTEM":"UTC","MEAN_ELEMENT_THEORY":"SGP4","EPOCH":"2021-04-21T13:24:57.400416","MEAN_MOTION":15.06393379,"ECCENTRICITY":0.0000979,"INCLINATION":53.0558,"RA_OF_ASC_NODE":51.4115,"ARG_OF_PERICENTER":55.0001,"MEAN_ANOMALY":305.108,"EPHEMERIS_TYPE":0,"CLASSIFICATION_TYPE":"U","NORAD_CAT_ID":46757,"ELEMENT_SET_NO":999,"REV_AT_EPOCH":2785,"BSTAR":0.000044209,"MEAN_MOTION_DOT":0.00000377,"MEAN_MOTION_DDOT":0,"SEMIMAJOR_AXIS":6925.369,"PERIOD":95.593,"APOAPSIS":547.912,"PERIAPSIS":546.556,"OBJECT_TYPE":"PAYLOAD","RCS_SIZE":"LARGE","COUNTRY_CODE":"US","LAUNCH_DATE":"2020-10-24","SITE":"AFETR","DECAY_DATE":null,"DECAYED":0,"FILE":3022634,"GP_ID":175890972,"TLE_LINE0":"0
        STARLINK-1926","TLE_LINE1":"1 46757U 20074U   21111.55899769  .00000377  00000-0  44209-4
        0  9996","TLE_LINE2":"2 46757  53.0558  51.4115 0000979  55.0001 305.1080
        15.06393379 27855"},"version":"v1.0","launch":"5ef6a2e70059c33cee4a8293","longitude":-97.2382541613145,"latitude":52.49055712821438,"height_km":553.122695630128,"velocity_kms":7.591786875931003,"id":"5fa31092c4fa370006feed11"},{"spaceTrack":{"CCSDS_OMM_VERS":"2.0","COMMENT":"GENERATED
        VIA SPACE-TRACK.ORG API","CREATION_DATE":"2021-04-21T22:36:12","ORIGINATOR":"18
        SPCS","OBJECT_NAME":"STARLINK-1865","OBJECT_ID":"2020-074C","CENTER_NAME":"EARTH","REF_FRAME":"TEME","TIME_SYSTEM":"UTC","MEAN_ELEMENT_THEORY":"SGP4","EPOCH":"2021-04-21T19:04:00.504192","MEAN_MOTION":15.06397455,"ECCENTRICITY":0.0001418,"INCLINATION":53.0569,"RA_OF_ASC_NODE":45.3499,"ARG_OF_PERICENTER":73.2546,"MEAN_ANOMALY":286.8598,"EPHEMERIS_TYPE":0,"CLASSIFICATION_TYPE":"U","NORAD_CAT_ID":46741,"ELEMENT_SET_NO":999,"REV_AT_EPOCH":2796,"BSTAR":0.00010985,"MEAN_MOTION_DOT":0.00001355,"MEAN_MOTION_DDOT":0,"SEMIMAJOR_AXIS":6925.356,"PERIOD":95.592,"APOAPSIS":548.203,"PERIAPSIS":546.239,"OBJECT_TYPE":"PAYLOAD","RCS_SIZE":"LARGE","COUNTRY_CODE":"US","LAUNCH_DATE":"2020-10-24","SITE":"AFETR","DECAY_DATE":null,"DECAYED":0,"FILE":3022588,"GP_ID":175890429,"TLE_LINE0":"0
        STARLINK-1865","TLE_LINE1":"1 46741U 20074C   21111.79445028  .00001355  00000-0  10985-3
        0  9990","TLE_LINE2":"2 46741  53.0569  45.3499 0001418  73.2546 286.8598
        15.06397455 27962"},"version":"v1.0","launch":"5ef6a2e70059c33cee4a8293","longitude":49.08324893719834,"latitude":-52.16193200242767,"height_km":566.2763707046843,"velocity_kms":7.577298119369377,"id":"5fa31093c4fa370006feed16"},{"spaceTrack":{"CCSDS_OMM_VERS":"2.0","COMMENT":"GENERATED
        VIA SPACE-TRACK.ORG API","CREATION_DATE":"2021-04-21T22:36:12","ORIGINATOR":"18
        SPCS","OBJECT_NAME":"STARLINK-1910","OBJECT_ID":"2020-074K","CENTER_NAME":"EARTH","REF_FRAME":"TEME","TIME_SYSTEM":"UTC","MEAN_ELEMENT_THEORY":"SGP4","EPOCH":"2021-04-21T19:25:13.663488","MEAN_MOTION":15.06406379,"ECCENTRICITY":0.000437,"INCLINATION":53.0579,"RA_OF_ASC_NODE":45.2826,"ARG_OF_PERICENTER":172.4528,"MEAN_ANOMALY":187.6528,"EPHEMERIS_TYPE":0,"CLASSIFICATION_TYPE":"U","NORAD_CAT_ID":46748,"ELEMENT_SET_NO":999,"REV_AT_EPOCH":2797,"BSTAR":0.00014989,"MEAN_MOTION_DOT":0.00001951,"MEAN_MOTION_DDOT":0,"SEMIMAJOR_AXIS":6925.329,"PERIOD":95.592,"APOAPSIS":550.22,"PERIAPSIS":544.168,"OBJECT_TYPE":"PAYLOAD","RCS_SIZE":"LARGE","COUNTRY_CODE":"US","LAUNCH_DATE":"2020-10-24","SITE":"AFETR","DECAY_DATE":null,"DECAYED":0,"FILE":3022609,"GP_ID":175890163,"TLE_LINE0":"0
        STARLINK-1910","TLE_LINE1":"1 46748U 20074K   21111.80918592  .00001951  00000-0  14989-3
        0  9990","TLE_LINE2":"2 46748  53.0579  45.2826 0004370 172.4528 187.6528
        15.06406379 27973"},"version":"v1.0","launch":"5ef6a2e70059c33cee4a8293","longitude":-24.91341759772503,"latitude":-0.45214701210324193,"height_km":545.12239531461,"velocity_kms":7.592376471269348,"id":"5fa31092c4fa370006feed12"},{"spaceTrack":{"CCSDS_OMM_VERS":"2.0","COMMENT":"GENERATED
        VIA SPACE-TRACK.ORG API","CREATION_DATE":"2021-04-21T19:20:26","ORIGINATOR":"18
        SPCS","OBJECT_NAME":"STARLINK-1905","OBJECT_ID":"2020-074H","CENTER_NAME":"EARTH","REF_FRAME":"TEME","TIME_SYSTEM":"UTC","MEAN_ELEMENT_THEORY":"SGP4","EPOCH":"2021-04-21T13:19:01.714080","MEAN_MOTION":15.06389887,"ECCENTRICITY":0.0001291,"INCLINATION":53.0559,"RA_OF_ASC_NODE":46.41,"ARG_OF_PERICENTER":68.0345,"MEAN_ANOMALY":292.0781,"EPHEMERIS_TYPE":0,"CLASSIFICATION_TYPE":"U","NORAD_CAT_ID":46746,"ELEMENT_SET_NO":999,"REV_AT_EPOCH":2791,"BSTAR":0.00012519,"MEAN_MOTION_DOT":0.00001583,"MEAN_MOTION_DDOT":0,"SEMIMAJOR_AXIS":6925.38,"PERIOD":95.593,"APOAPSIS":548.139,"PERIAPSIS":546.35,"OBJECT_TYPE":"PAYLOAD","RCS_SIZE":"LARGE","COUNTRY_CODE":"US","LAUNCH_DATE":"2020-10-24","SITE":"AFETR","DECAY_DATE":null,"DECAYED":0,"FILE":3022491,"GP_ID":175886852,"TLE_LINE0":"0
        STARLINK-1905","TLE_LINE1":"1 46746U 20074H   21111.55488095  .00001583  00000-0  12519-3
        0  9998","TLE_LINE2":"2 46746  53.0559  46.4100 0001291  68.0345 292.0781
        15.06389887 27913"},"version":"v1.0","launch":"5ef6a2e70059c33cee4a8293","longitude":-71.1051784107553,"latitude":43.80970195291525,"height_km":551.0934959876331,"velocity_kms":7.592067297533536,"id":"5fa3109329f50d0006226dac"},{"spaceTrack":{"CCSDS_OMM_VERS":"2.0","COMMENT":"GENERATED
        VIA SPACE-TRACK.ORG API","CREATION_DATE":"2021-04-21T19:20:26","ORIGINATOR":"18
        SPCS","OBJECT_NAME":"STARLINK-1898","OBJECT_ID":"2020-074G","CENTER_NAME":"EARTH","REF_FRAME":"TEME","TIME_SYSTEM":"UTC","MEAN_ELEMENT_THEORY":"SGP4","EPOCH":"2021-04-21T07:07:28.449120","MEAN_MOTION":15.06391687,"ECCENTRICITY":0.0001181,"INCLINATION":53.056,"RA_OF_ASC_NODE":47.5653,"ARG_OF_PERICENTER":75.2313,"MEAN_ANOMALY":284.8807,"EPHEMERIS_TYPE":0,"CLASSIFICATION_TYPE":"U","NORAD_CAT_ID":46745,"ELEMENT_SET_NO":999,"REV_AT_EPOCH":2787,"BSTAR":0.000041768,"MEAN_MOTION_DOT":0.00000341,"MEAN_MOTION_DDOT":0,"SEMIMAJOR_AXIS":6925.374,"PERIOD":95.593,"APOAPSIS":548.057,"PERIAPSIS":546.421,"OBJECT_TYPE":"PAYLOAD","RCS_SIZE":"LARGE","COUNTRY_CODE":"US","LAUNCH_DATE":"2020-10-24","SITE":"AFETR","DECAY_DATE":null,"DECAYED":0,"FILE":3022491,"GP_ID":175886102,"TLE_LINE0":"0
        STARLINK-1898","TLE_LINE1":"1 46745U 20074G   21111.29685705  .00000341  00000-0  41768-4
        0  9995","TLE_LINE2":"2 46745  53.0560  47.5653 0001181  75.2313 284.8807
        15.06391687 27876"},"version":"v1.0","launch":"5ef6a2e70059c33cee4a8293","longitude":-131.2137396166667,"latitude":52.12239769159682,"height_km":552.7358569789994,"velocity_kms":7.592132575638362,"id":"5fa31092c4fa370006feed14"},{"spaceTrack":{"CCSDS_OMM_VERS":"2.0","COMMENT":"GENERATED
        VIA SPACE-TRACK.ORG API","CREATION_DATE":"2021-04-21T22:36:12","ORIGINATOR":"18
        SPCS","OBJECT_NAME":"STARLINK-1894","OBJECT_ID":"2020-074F","CENTER_NAME":"EARTH","REF_FRAME":"TEME","TIME_SYSTEM":"UTC","MEAN_ELEMENT_THEORY":"SGP4","EPOCH":"2021-04-21T19:19:57.544032","MEAN_MOTION":15.06385503,"ECCENTRICITY":0.0001291,"INCLINATION":53.0564,"RA_OF_ASC_NODE":45.3051,"ARG_OF_PERICENTER":79.2926,"MEAN_ANOMALY":280.8208,"EPHEMERIS_TYPE":0,"CLASSIFICATION_TYPE":"U","NORAD_CAT_ID":46744,"ELEMENT_SET_NO":999,"REV_AT_EPOCH":2795,"BSTAR":0.00010892,"MEAN_MOTION_DOT":0.00001341,"MEAN_MOTION_DDOT":0,"SEMIMAJOR_AXIS":6925.393,"PERIOD":95.593,"APOAPSIS":548.152,"PERIAPSIS":546.364,"OBJECT_TYPE":"PAYLOAD","RCS_SIZE":"LARGE","COUNTRY_CODE":"US","LAUNCH_DATE":"2020-10-24","SITE":"AFETR","DECAY_DATE":null,"DECAYED":0,"FILE":3022589,"GP_ID":175889957,"TLE_LINE0":"0
        STARLINK-1894","TLE_LINE1":"1 46744U 20074F   21111.80552713  .00001341  00000-0  10892-3
        0  9997","TLE_LINE2":"2 46744  53.0564  45.3051 0001291  79.2926 280.8208
        15.06385503 27953"},"version":"v1.0","launch":"5ef6a2e70059c33cee4a8293","longitude":-12.63844658808623,"latitude":-16.26920118692107,"height_km":552.0769507241866,"velocity_kms":7.585805641104875,"id":"5fa31092c4fa370006feed15"},{"spaceTrack":{"CCSDS_OMM_VERS":"2.0","COMMENT":"GENERATED
        VIA SPACE-TRACK.ORG API","CREATION_DATE":"2021-04-21T22:46:16","ORIGINATOR":"18
        SPCS","OBJECT_NAME":"STARLINK-1943","OBJECT_ID":"2020-074BJ","CENTER_NAME":"EARTH","REF_FRAME":"TEME","TIME_SYSTEM":"UTC","MEAN_ELEMENT_THEORY":"SGP4","EPOCH":"2021-04-21T18:14:23.415936","MEAN_MOTION":15.29037085,"ECCENTRICITY":0.0007303,"INCLINATION":53.0553,"RA_OF_ASC_NODE":18.846,"ARG_OF_PERICENTER":271.5345,"MEAN_ANOMALY":88.4817,"EPHEMERIS_TYPE":0,"CLASSIFICATION_TYPE":"U","NORAD_CAT_ID":46795,"ELEMENT_SET_NO":999,"REV_AT_EPOCH":2806,"BSTAR":-0.0031645,"MEAN_MOTION_DOT":-0.00089789,"MEAN_MOTION_DDOT":0,"SEMIMAJOR_AXIS":6856.827,"PERIOD":94.177,"APOAPSIS":483.699,"PERIAPSIS":473.684,"OBJECT_TYPE":"PAYLOAD","RCS_SIZE":"LARGE","COUNTRY_CODE":"US","LAUNCH_DATE":"2020-10-24","SITE":"AFETR","DECAY_DATE":null,"DECAYED":0,"FILE":3022648,"GP_ID":175891513,"TLE_LINE0":"0
        STARLINK-1943","TLE_LINE1":"1 46795U 20074BJ  21111.75999324 -.00089789  00000-0
        -31645-2 0  9992","TLE_LINE2":"2 46795  53.0553  18.8460 0007303 271.5345  88.4817
        15.29037085 28063"},"version":"v1.0","launch":"5ef6a2e70059c33cee4a8293","longitude":-103.37291734145971,"latitude":46.262990807580906,"height_km":488.458094887269,"velocity_kms":7.624048257182237,"id":"5fa31093c4fa370006feed17"},{"spaceTrack":{"CCSDS_OMM_VERS":"2.0","COMMENT":"GENERATED
        VIA SPACE-TRACK.ORG API","CREATION_DATE":"2021-04-21T19:20:26","ORIGINATOR":"18
